ONEWEB-0545             
1 54647U 22166F   25124.12694247  .00000113  00000+0  24323-3 0  9993
2 54647  87.9251 325.5708 0002070  72.5774 287.5586 13.21825989117931
ONEWEB-0580             
1 54648U 22166G   25123.79734720  .00000105  00000+0  22318-3 0  9990
2 54648  87.9259 325.6293 0002161  81.5118 278.6261 13.21826036117466
ONEWEB-0582             
1 54649U 22166H   25123.83990959  .00000021  00000+0  19139-4 0  9999
2 54649  87.9237 325.6337 0002310  79.7948 280.3446 13.21828776117444
ONEWEB-0583             
1 54650U 22166J   25124.07805246  .00000007  00000+0 -15344-4 0  9991
2 54650  87.9252 325.5958 0001856  83.3501 276.7844 13.21825566117963
ONEWEB-0584             
1 54651U 22166K   25124.09855579  .00000036  00000+0  54547-4 0  9997
2 54651  87.9258 325.5736 0002261  83.9739 276.1653 13.21827557117946
ONEWEB-0585             
1 54652U 22166L   25123.59391398  .00000079  00000+0  16071-3 0  9992
2 54652  87.9248 325.6665 0001776  90.5959 269.5379 13.21825862117416
ONEWEB-0586             
1 54653U 22166M   25123.90931170  .00000087  00000+0  18008-3 0  9997
2 54653  87.9253 325.6218 0001948  83.1159 277.0196 13.21825329117451
ONEWEB-0587             
1 54654U 22166N   25123.84307648  .00000055  00000+0  10274-3 0  9990
2 54654  87.9252 325.5850 0001703  92.9994 267.1335 13.21825633117606
